{
  "type": "FeatureCollection",
  "generator": "overpass-ide",
  "copyright": "The data included in this document is from www.openstreetmap.org. The data is made available under ODbL.",
  "timestamp": "2023-02-15T12:32:09Z",
  "features": [
    {
      "type": "Feature",
      "properties": {
        "@id": "node/3123520332",
        "alt_name": "ATM",
        "amenity": "atm",
        "drive_through": "no",
        "name": "Himalayan Bank Limited",
        "name:ne": "हिमालयन बैंक लिमिटेड",
        "network": "Visa, MasterCard, UnionPay, JCB, SCT, Maestro",
        "nrb_class": "commercial",
        "operator": "Himalayan Bank",
        "source": "2cpokhara"
      },
      "geometry": {
        "type": "Point",
        "coordinates": [
          83.9571981,
          28.2093036
        ]
      },
      "id": "node/3123520332"
    },
    {
      "type": "Feature",
      "properties": {
        "@id": "node/3123520344",
        "alt_name": "ATM",
        "amenity": "atm",
        "brand": "SBI Bank",
        "contact:phone": "061-540015",
        "name": "Nepal SBI Bank Limited",
        "name:ne": "एस.वि.आइ बैंक",
        "nrb_class": "commercial",
        "operator": "Nepal SBI Bank",
        "source": "2cpokhara",
        "website": "https://nepalsbi.com.np"
      },
      "geometry": {
        "type": "Point",
        "coordinates": [
          83.957763,
          28.2138817
        ]
      },
      "id": "node/3123520344"
    },
    {
      "type": "Feature",
      "properties": {
        "@id": "node/3218445587",
        "addr:city": "Pokhara Lekhanath Metropolitan City",
        "addr:place": "Rastra Bank Chowk",
        "addr:street": "Rastra Bank Marga",
        "alt_name": "ATM Machine",
        "amenity": "atm",
        "name": "Machhapuchchre Bank Limited",
        "name:ne": "माछापुछ्रे बैंक लिमिटेड",
        "nrb_class": "commercial",
        "operator": "Machhapuchchre Bank Limited",
        "source": "2cpokhara"
      },
      "geometry": {
        "type": "Point",
        "coordinates": [
          83.9714493,
          28.2013369
        ]
      },
      "id": "node/3218445587"
    },
    {
      "type": "Feature",
      "properties": {
        "@id": "node/3637654269",
        "alt_name": "ATM",
        "amenity": "atm",
        "brand": "Laxmi Bank",
        "name": "Laxmi Bank Limited",
        "name:ne": "लक्ष्मी बैंक लिमिटेड",
        "nrb_class": "commercial",
        "operator": "Laxmi Bank",
        "source": "2cpokhara"
      },
      "geometry": {
        "type": "Point",
        "coordinates": [
          83.9574788,
          28.2077718
        ]
      },
      "id": "node/3637654269"
    },
    {
      "type": "Feature",
      "properties": {
        "@id": "node/3637654272",
        "alt_name": "ATM",
        "amenity": "atm",
        "brand": "Nepal Investment Bank Limited",
        "name": "Nepal Investment Bank Limited",
        "name:ne": "नेपाल इन्भेस्टमन्ट बैंक लिमिटेड",
        "nrb_class": "commercial",
        "operator": "Nepal Investment Bank Limited",
        "phone": "061-466872, 466873, 466874",
        "source": "2cpokhara"
      },
      "geometry": {
        "type": "Point",
        "coordinates": [
          83.9568835,
          28.2099423
        ]
      },
      "id": "node/3637654272"
    },
    {
      "type": "Feature",
      "properties": {
        "@id": "node/4061468214",
        "alt_name": "ATM",
        "amenity": "atm",
        "brand": "Nabil Bank",
        "name": "Nabil Bank Limited",
        "name:ne": "नबिल बैंक",
        "nrb_class": "commercial",
        "operator": "Nabil Bank",
        "source": "2cpokhara"
      },
      "geometry": {
        "type": "Point",
        "coordinates": [
          83.9627752,
          28.2043467
        ]
      },
      "id": "node/4061468214"
    },
    {
      "type": "Feature",
      "properties": {
        "@id": "node/4172494729",
        "amenity": "atm",
        "name": "Muktinath Bikash Bank Limited",
        "name:ne": "मुक्तिनाथ विकास बैंक लिमिटेड",
        "nrb_class": "development",
        "operator": "Mukthinath Bikash Bank",
        "source": "2cpokhara"
      },
      "geometry": {
        "type": "Point",
        "coordinates": [
          83.9849008,
          28.2060698
        ]
      },
      "id": "node/4172494729"
    },
    {
      "type": "Feature",
      "properties": {
        "@id": "node/4176506796",
        "alt_name": "ATM",
        "amenity": "atm",
        "brand": "Siddhartha Bank",
        "name": "Siddartha Bank Limited",
        "name:ne": "सिद्धार्थ बैंक",
        "network": "SCT, VISA, JCB, Mastercard, Discover, National, UnionPay",
        "nrb_class": "commercial",
        "operator": "Siddhartha Bank",
        "source": "2cpokhara"
      },
      "geometry": {
        "type": "Point",
        "coordinates": [
          83.9844654,
          28.2105656
        ]
      },
      "id": "node/4176506796"
    },
    {
      "type": "Feature",
      "properties": {
        "@id": "node/4180451275",
        "alt_name": "ATM",
        "amenity": "atm",
        "name": "Laxmi Bank Limited",
        "name:ne": "लक्ष्मी बैंक लिमिटेड",
        "network": "SCT, VISA, Mastercard, National, HelloPAISA, Cirrus",
        "nrb_class": "commercial",
        "opening_hours": "24/7",
        "operator": "Laxmi Bank Limited",
        "phone": "061-533580, 540153",
        "source": "2cpokhara"
      },
      "geometry": {
        "type": "Point",
        "coordinates": [
          83.9863854,
          28.2182568
        ]
      },
      "id": "node/4180451275"
    },
    {
      "type": "Feature",
      "properties": {
        "@id": "node/4198902451",
        "alt_name": "ATM",
        "amenity": "atm",
        "name": "Nabil Bank Limited",
        "name:ne": "नबिल बैंकको एटिएम",
        "nrb_class": "commercial",
        "operator": "Nabil Bank Limited",
        "source": "2cpokhara"
      },
      "geometry": {
        "type": "Point",
        "coordinates": [
          83.9883606,
          28.2241006
        ]
      },
      "id": "node/4198902451"
    },
    {
      "type": "Feature",
      "properties": {
        "@id": "node/4225182404",
        "amenity": "atm",
        "name": "Machhapuchchre Bank Limited",
        "name:ne": "माछापुछ्रे बैंक लिमिटेड",
        "nrb_class": "commercial",
        "opening_hours": "24/7",
        "operator": "Machhapuchchre Bank Limited",
        "source": "2cpokhara",
        "wheelchair": "yes"
      },
      "geometry": {
        "type": "Point",
        "coordinates": [
          83.9993915,
          28.2124467
        ]
      },
      "id": "node/4225182404"
    },
    {
      "type": "Feature",
      "properties": {
        "@id": "node/4271095089",
        "alt_name": "ATM",
        "amenity": "atm",
        "name": "Nepal SBI Bank Limited",
        "name:ne": "नेपाल एस.वि.आइ.बैंक लिमिटेड",
        "nrb_class": "commercial",
        "operator": "Nepal SBI Bank",
        "source": "2cpokhara"
      },
      "geometry": {
        "type": "Point",
        "coordinates": [
          84.0668244,
          28.1482582
        ]
      },
      "id": "node/4271095089"
    },
    {
      "type": "Feature",
      "properties": {
        "@id": "node/4296155929",
        "alt_name": "ATM",
        "amenity": "atm",
        "brand": "Kamana Development Bank",
        "name": "Kamana Bikash Bank Limited",
        "name:ne": "कामना विकास बैंक लिमिटेड",
        "nrb_class": "development",
        "operator": "Kamana Bikash Bank",
        "source": "2cpokhara"
      },
      "geometry": {
        "type": "Point",
        "coordinates": [
          83.9808389,
          28.2115525
        ]
      },
      "id": "node/4296155929"
    },
    {
      "type": "Feature",
      "properties": {
        "@id": "node/4318383364",
        "alt_name": "ATM",
        "amenity": "atm",
        "cash_in": "no",
        "contact:phone": "01-4247341",
        "name": "Nepal Bank Limited",
        "name:ne": "नेपाल बैंक लिमिटेड",
        "nrb_class": "commercial",
        "operator": "Nepal Bank Limited",
        "source": "2cpokhara"
      },
      "geometry": {
        "type": "Point",
        "coordinates": [
          83.958797,
          28.2173083
        ]
      },
      "id": "node/4318383364"
    },
    {
      "type": "Feature",
      "properties": {
        "@id": "node/4534538293",
        "alt_name": "ATM",
        "amenity": "atm",
        "name": "Sanima Bank Limited",
        "name:ne": "सानीमा बैंक लिमिटेड",
        "nrb_class": "commercial",
        "operator": "Sanima Bank",
        "source": "2cpokhara"
      },
      "geometry": {
        "type": "Point",
        "coordinates": [
          83.9570676,
          28.2090127
        ]
      },
      "id": "node/4534538293"
    },
    {
      "type": "Feature",
      "properties": {
        "@id": "node/4540633194",
        "alt_name": "ATM",
        "amenity": "atm",
        "name": "Global IME Bank Limited",
        "name:ne": "ग्लोबल आइ.एम.इ. बैंक लिमिटेड",
        "nrb_class": "commercial",
        "operator": "Global IME Bank",
        "source": "2cpokhara"
      },
      "geometry": {
        "type": "Point",
        "coordinates": [
          83.9576571,
          28.2078619
        ]
      },
      "id": "node/4540633194"
    },
    {
      "type": "Feature",
      "properties": {
        "@id": "node/4579249599",
        "alt_name": "ATM",
        "amenity": "atm",
        "name": "Century Commercial Bank Limited",
        "name:ne": "सेन्चुरी कमर्सियल बैंक लिमिटेड",
        "network": "Visa, MasterCard, Cirrus, National,",
        "nrb_class": "commercial",
        "operator": "Century Bank",
        "source": "2cpokhara"
      },
      "geometry": {
        "type": "Point",
        "coordinates": [
          83.961199,
          28.2058754
        ]
      },
      "id": "node/4579249599"
    },
    {
      "type": "Feature",
      "properties": {
        "@id": "node/4579370617",
        "alt_name": "ATM",
        "amenity": "atm",
        "name": "N.I.D.C. Development Bank Limited",
        "name:ne": "एन.आइ.डी.सी. विकास बैंक",
        "nrb_class": "commercial",
        "opening_hours": "24/7",
        "operator": "N.I.D.C. Development Bank",
        "phone": "061-520518, 061-520083",
        "source": "2cpokhara"
      },
      "geometry": {
        "type": "Point",
        "coordinates": [
          83.9862805,
          28.2102899
        ]
      },
      "id": "node/4579370617"
    },
    {
      "type": "Feature",
      "properties": {
        "@id": "node/4585116044",
        "alt_name": "ATM",
        "amenity": "atm",
        "name": "Nepal Bank Limited",
        "name:ne": "नेपाल बैंक लिमिटेड",
        "network": "VISA, MasterCard, Maestro,SCT, JCB, UnionPay",
        "nrb_class": "commercial",
        "operator": "Nepal Bank Limited",
        "phone": "061-520439, 528819, 526068, 520270",
        "source": "2cpokhara"
      },
      "geometry": {
        "type": "Point",
        "coordinates": [
          83.9861172,
          28.2100941
        ]
      },
      "id": "node/4585116044"
    },
    {
      "type": "Feature",
      "properties": {
        "@id": "node/4590509455",
        "alt_name": "ATM",
        "amenity": "atm",
        "name": "NMB Bank Limited",
        "name:ne": "एन एम वि बैंक लिमिटेड",
        "network": "VISA, VISA Electron, MasterCard, Maestro, Cirrus",
        "nrb_class": "commercial",
        "operator": "NMB Bank Limited",
        "source": "2cpokhara"
      },
      "geometry": {
        "type": "Point",
        "coordinates": [
          83.9862982,
          28.2242078
        ]
      },
      "id": "node/4590509455"
    },
    {
      "type": "Feature",
      "properties": {
        "@id": "node/4595904433",
        "alt_name": "ATM",
        "amenity": "atm",
        "name": "Everest Bank Limited",
        "name:ne": "एभरेस्ट बैंक लिमिटेड",
        "nrb_class": "commercial",
        "operator": "Everest Bank Limited",
        "source": "2cpokhara"
      },
      "geometry": {
        "type": "Point",
        "coordinates": [
          83.9577322,
          28.2137853
        ]
      },
      "id": "node/4595904433"
    },
    {
      "type": "Feature",
      "properties": {
        "@id": "node/4595904437",
        "alt_name": "ATM",
        "amenity": "atm",
        "name": "Kumari Bank Limited",
        "name:ne": "कुमारी बैंक लिमिटेड",
        "nrb_class": "commercial",
        "operator": "Kumari Bank",
        "source": "2cpokhara"
      },
      "geometry": {
        "type": "Point",
        "coordinates": [
          83.9571486,
          28.2131892
        ]
      },
      "id": "node/4595904437"
    },
    {
      "type": "Feature",
      "properties": {
        "@id": "node/4595904444",
        "alt_name": "ATM",
        "amenity": "atm",
        "name": "Sanima Bank Limited",
        "name:ne": "सानीमा बैंक लिमिटेड",
        "nrb_class": "commercial",
        "operator": "Sanima Bank",
        "source": "2cpokhara"
      },
      "geometry": {
        "type": "Point",
        "coordinates": [
          83.9582415,
          28.2152587
        ]
      },
      "id": "node/4595904444"
    },
    {
      "type": "Feature",
      "properties": {
        "@id": "node/4595904445",
        "alt_name": "ATM",
        "amenity": "atm",
        "name": "Siddhartha Bank Limited",
        "name:ne": "सिद्धार्थ बैंक लिमिटेड",
        "network": "Visa, MasterCard, UnionPay, JCB, SCT, Discover, National",
        "nrb_class": "commercial",
        "operator": "Siddhartha Bank",
        "source": "2cpokhara"
      },
      "geometry": {
        "type": "Point",
        "coordinates": [
          83.9572995,
          28.2118696
        ]
      },
      "id": "node/4595904445"
    },
    {
      "type": "Feature",
      "properties": {
        "@id": "node/4595945794",
        "alt_name": "ATM",
        "amenity": "atm",
        "cash_in": "no",
        "name": "Global IME Bank Limited",
        "name:ne": "ग्लोबल आइ.एम.इ. बैंक लि.",
        "nrb_class": "commercial",
        "operator": "Global IME Bank",
        "source": "2cpokhara"
      },
      "geometry": {
        "type": "Point",
        "coordinates": [
          83.9587902,
          28.2172939
        ]
      },
      "id": "node/4595945794"
    },
    {
      "type": "Feature",
      "properties": {
        "@id": "node/4595945795",
        "alt_name": "ATM",
        "amenity": "atm",
        "cash_in": "no",
        "contact:phone": "061-525715",
        "name": "Nabil Bank Limited",
        "name:ne": "नबिल बैंक लिमिटेड",
        "network": "Visa, MasterCard, SCT,",
        "nrb_class": "commercial",
        "operator": "Nabil Bank",
        "source": "2cpokhara"
      },
      "geometry": {
        "type": "Point",
        "coordinates": [
          83.9588125,
          28.2173375
        ]
      },
      "id": "node/4595945795"
    },
    {
      "type": "Feature",
      "properties": {
        "@id": "node/4595945796",
        "alt_name": "ATM",
        "amenity": "atm",
        "cash_in": "no",
        "contact:phone": "061-551338, 061-551405",
        "name": "Siddhartha Bank Limited",
        "name:ne": "सिद्धार्थ बैंक लिमिटेड",
        "nrb_class": "commercial",
        "operator": "Siddharta Bank",
        "source": "2cpokhara"
      },
      "geometry": {
        "type": "Point",
        "coordinates": [
          83.958804,
          28.2173226
        ]
      },
      "id": "node/4595945796"
    },
    {
      "type": "Feature",
      "properties": {
        "@id": "node/4601050425",
        "alt_name": "ATM",
        "amenity": "atm",
        "name": "Sanima Bank Limited",
        "name:ne": "सानीमा बैंक लिमिटेड",
        "network": "Visa, MasterCard, Maestro",
        "nrb_class": "commercial",
        "operator": "Sanima Bank Limited",
        "source": "2cpokhara"
      },
      "geometry": {
        "type": "Point",
        "coordinates": [
          83.989802,
          28.1935246
        ]
      },
      "id": "node/4601050425"
    },
    {
      "type": "Feature",
      "properties": {
        "@id": "node/4601064349",
        "alt_name": "ATM",
        "amenity": "atm",
        "brand": "SBI Bank",
        "name": "Nepal SBI Bank Limited",
        "name:ne": "नेपाल एस.वि.आइ.बैंक लिमिटेड",
        "nrb_class": "commercial",
        "operator": "SBI Bank",
        "source": "2cpokhara"
      },
      "geometry": {
        "type": "Point",
        "coordinates": [
          83.9957572,
          28.198626
        ]
      },
      "id": "node/4601064349"
    },
    {
      "type": "Feature",
      "properties": {
        "@id": "node/4603317227",
        "addr:street": "Birauta",
        "alt_name": "ATM",
        "amenity": "atm",
        "name": "Fewa Bikash Bank Limited",
        "name:ne": "फेवा बिकास बैंक लिमिटेड",
        "network": "Visa, Visa Elecstsron, SCT, Maestro, MasterCard",
        "nrb_class": "development",
        "operator": "Fewa Bikash Bank Limited",
        "source": "2cpokhara"
      },
      "geometry": {
        "type": "Point",
        "coordinates": [
          83.9711879,
          28.1919077
        ]
      },
      "id": "node/4603317227"
    },
    {
      "type": "Feature",
      "properties": {
        "@id": "node/4603328149",
        "alt_name": "ATM",
        "amenity": "atm",
        "name": "Nepal SBI Bank Limited",
        "name:ne": "नेपाल एस.वि.आइ.बैंक लिमिटेड",
        "nrb_class": "commercial",
        "operator": "Nepal SBI Bank Limited",
        "source": "2cpokhara"
      },
      "geometry": {
        "type": "Point",
        "coordinates": [
          83.9972613,
          28.2348353
        ]
      },
      "id": "node/4603328149"
    },
    {
      "type": "Feature",
      "properties": {
        "@id": "node/4620028465",
        "alt_name": "ATM",
        "amenity": "atm",
        "name": "Garima Bikash Bank Limited",
        "name:ne": "गरिमा विकास बैंक लिमिटेड",
        "nrb_class": "development",
        "operator": "Garima Bikash Bank Limited",
        "source": "2cpokhara"
      },
      "geometry": {
        "type": "Point",
        "coordinates": [
          83.9720437,
          28.1921257
        ]
      },
      "id": "node/4620028465"
    },
    {
      "type": "Feature",
      "properties": {
        "@id": "node/4620028467",
        "addr:street": "Annapurna Marg",
        "alt_name": "ATM",
        "amenity": "atm",
        "name": "Shangri-la Development Bank Limited",
        "name:ne": "सांग्रिला विकास बैंक लिमिटेड",
        "nrb_class": "development",
        "operator": "Shangri-La Development Bank Limited",
        "phone": "+977 61 466018;+977 61 466017",
        "source": "2cpokhara",
        "website": "https://www.shangrilabank.com/"
      },
      "geometry": {
        "type": "Point",
        "coordinates": [
          83.971782,
          28.1920938
        ]
      },
      "id": "node/4620028467"
    },
    {
      "type": "Feature",
      "properties": {
        "@id": "node/4620031609",
        "alt_name": "ATM",
        "amenity": "atm",
        "name": "Kamana Bikash Bank Limited",
        "name:ne": "कामना विकास बैंक लिमिटेड",
        "nrb_class": "development",
        "operator": "Kamana Bikash Bank Limited",
        "source": "2cpokhara"
      },
      "geometry": {
        "type": "Point",
        "coordinates": [
          83.9722098,
          28.1921668
        ]
      },
      "id": "node/4620031609"
    },
    {
      "type": "Feature",
      "properties": {
        "@id": "node/4620037790",
        "alt_name": "ATM",
        "amenity": "atm",
        "name": "Nepal SBI Bank Limited",
        "name:ne": "नेपाल एस वि आइ बैंक लिमिटेड",
        "nrb_class": "commercial",
        "opening_hours": "Su-Th 09:45-16:00; Fr 09:45-14:00",
        "operator": "Nepal SBI Bank",
        "phone": "061-462318",
        "source": "2cpokhara",
        "website": "www.nsbl.com.np"
      },
      "geometry": {
        "type": "Point",
        "coordinates": [
          83.9708594,
          28.1917986
        ]
      },
      "id": "node/4620037790"
    },
    {
      "type": "Feature",
      "properties": {
        "@id": "node/4620046686",
        "alt_name": "ATM",
        "amenity": "atm",
        "contact:phone": "061-467233, 467244",
        "name": "Prabhu Bank Limited",
        "name:ne": "प्रभु बैंक लिमिटेड",
        "network": "Visa, MasterCard, Maestro, Cirrus, RuPaiya, SCT",
        "nrb_class": "commercial",
        "opening_hours": "Su-Th 09:45-04:00, Fr 09:45-02:00",
        "operator": "Prabhu Bank Limited",
        "source": "2cpokhara",
        "website": "https://prabhubank.com"
      },
      "geometry": {
        "type": "Point",
        "coordinates": [
          83.9723482,
          28.1929628
        ]
      },
      "id": "node/4620046686"
    },
    {
      "type": "Feature",
      "properties": {
        "@id": "node/4620046687",
        "alt_name": "ATM",
        "amenity": "atm",
        "contact:phone": "061-460185, 464703",
        "name": "Siddhartha Bank Limited",
        "name:ne": "सिद्धार्थ डेभलपमेन्ट बैंक लिमिटेड",
        "network": "Visa, MasterCard, SCT, National, Discover, JCB, Diners Club International, UnionPay",
        "nrb_class": "commercial",
        "operator": "Siddharth Bank Limited",
        "source": "2cpokhara",
        "website": "www.siddharthabank.com"
      },
      "geometry": {
        "type": "Point",
        "coordinates": [
          83.9725041,
          28.1931765
        ]
      },
      "id": "node/4620046687"
    },
    {
      "type": "Feature",
      "properties": {
        "@id": "node/4620120991",
        "addr:city": "Sabhagriha Chowk, Pokhara",
        "alt_name": "ATM",
        "amenity": "atm",
        "name": "Civil Bank Limited",
        "name:ne": "सिभिल बैंक लिमिटेड",
        "nrb_class": "commercial",
        "opening_hours": "10:00-03:00",
        "operator": "Civil Bank",
        "source": "2cpokhara",
        "wheelchair": "no"
      },
      "geometry": {
        "type": "Point",
        "coordinates": [
          83.9835586,
          28.2102007
        ]
      },
      "id": "node/4620120991"
    },
    {
      "type": "Feature",
      "properties": {
        "@id": "node/4620120992",
        "addr:city": "Ratna Chowk-8, Pokhara",
        "addr:street": "Ratna Chowk",
        "amenity": "atm",
        "contact:fax": "061-535245",
        "contact:phone": "061-535244",
        "name": "Kailash Bikash Bank Limited",
        "name:ne": "कैलाश विकास बैंक लिमिटेड",
        "nrb_class": "development",
        "operator": "Kailash Bank Limited",
        "source": "2cpokhara",
        "website": "https://kailashbank.com/"
      },
      "geometry": {
        "type": "Point",
        "coordinates": [
          83.9755653,
          28.2055126
        ]
      },
      "id": "node/4620120992"
    },
    {
      "type": "Feature",
      "properties": {
        "@id": "node/4620120993",
        "alt_name": "ATM",
        "amenity": "atm",
        "name": "Mega Bank Nepal Limited",
        "name:ne": "मेगा बैंक नेपाल लिमिटेड",
        "nrb_class": "commercial",
        "operator": "Mega Bank Limited",
        "source": "2cpokhara"
      },
      "geometry": {
        "type": "Point",
        "coordinates": [
          83.9851979,
          28.2120635
        ]
      },
      "id": "node/4620120993"
    },
    {
      "type": "Feature",
      "properties": {
        "@id": "node/4620120994",
        "alt_name": "ATM",
        "amenity": "atm",
        "name": "Nepal SBI Bank Limited",
        "name:ne": "नेपाल एस.वि.आइ.बैंक लिमिटेड",
        "nrb_class": "commercial",
        "operator": "Nepal SBI Bank",
        "source": "2cpokhara",
        "website": "https://nepalsbi.com.np"
      },
      "geometry": {
        "type": "Point",
        "coordinates": [
          83.9831847,
          28.2109311
        ]
      },
      "id": "node/4620120994"
    },
    {
      "type": "Feature",
      "properties": {
        "@id": "node/4620168849",
        "addr:street": "Mahendrapool",
        "amenity": "atm",
        "contact:phone": "061-539645",
        "name": "NIC Asia Bank Limited",
        "name:ne": "एन.आइ.सी. एसिया बैंक लिमिटेड",
        "nrb_class": "commercial",
        "operator": "NIC Asia Bank Limited",
        "source": "2cpokhara"
      },
      "geometry": {
        "type": "Point",
        "coordinates": [
          83.9912518,
          28.2238949
        ]
      },
      "id": "node/4620168849"
    },
    {
      "type": "Feature",
      "properties": {
        "@id": "node/4620168850",
        "addr:city": "Mahendrapul, Pokhara",
        "alt_name": "ATM",
        "amenity": "atm",
        "name": "Vibor Society Development Bank Limited",
        "name:ne": "विभोर सोसाईटी डेभलपमेन्ट बैंक लिमिटेड",
        "nrb_class": "commercial",
        "operator": "Vibor Society Development Bank",
        "source": "2cpokhara"
      },
      "geometry": {
        "type": "Point",
        "coordinates": [
          83.9912433,
          28.2239674
        ]
      },
      "id": "node/4620168850"
    },
    {
      "type": "Feature",
      "properties": {
        "@id": "node/4620190444",
        "addr:city": "Pokhara",
        "addr:street": "Bagar",
        "alt_name": "ATM",
        "amenity": "atm",
        "name": "Machhapuchchre Bank Limited",
        "name:ne": "माछापुछ्रे बैंक लिमिटेड",
        "nrb_class": "commercial",
        "operator": "Machhapuchchre Bank Limited",
        "source": "2cpokhara"
      },
      "geometry": {
        "type": "Point",
        "coordinates": [
          83.98731,
          28.2419901
        ]
      },
      "id": "node/4620190444"
    },
    {
      "type": "Feature",
      "properties": {
        "@id": "node/4620190445",
        "alt_name": "ATM",
        "amenity": "atm",
        "contact:phone": "061-520354, 530648",
        "name": "Nepal Bank Limited",
        "name:ne": "नेपाल बैंक लिमिटेड",
        "nrb_class": "commercial",
        "operator": "Nepal Bank Limited",
        "phone": "061-520354, 530648",
        "source": "2cpokhara",
        "website": "www.nepalbank.com.np"
      },
      "geometry": {
        "type": "Point",
        "coordinates": [
          83.9882089,
          28.2397639
        ]
      },
      "id": "node/4620190445"
    },
    {
      "type": "Feature",
      "properties": {
        "@id": "node/4620190446",
        "addr:street": "Bhimkali Patan",
        "alt_name": "ATM",
        "amenity": "atm",
        "name": "Pokhara Finance Limited",
        "name:ne": "पोखरा फाईनान्स लिमिटेड",
        "nrb_class": "finance companies",
        "operator": "Pokhara Finance Limited",
        "source": "2cpokhara"
      },
      "geometry": {
        "type": "Point",
        "coordinates": [
          83.9887968,
          28.2427729
        ]
      },
      "id": "node/4620190446"
    },
    {
      "type": "Feature",
      "properties": {
        "@id": "node/4620190447",
        "alt_name": "ATM",
        "amenity": "atm",
        "contact:fax": "061-532915",
        "contact:phone": "061-532914",
        "name": "Prabhu Development Bank Limited",
        "name:ne": "प्रभु बैंक लिमिटेड",
        "nrb_class": "commercial",
        "operator": "Prabhu Bank",
        "source": "2cpokhara",
        "website": "https://prabhubank.com"
      },
      "geometry": {
        "type": "Point",
        "coordinates": [
          83.9888945,
          28.2415174
        ]
      },
      "id": "node/4620190447"
    },
    {
      "type": "Feature",
      "properties": {
        "@id": "node/4620194666",
        "addr:city": "Pokhara",
        "addr:street": "Bhimkali Patan",
        "amenity": "atm",
        "name": "KIST Bank Limited",
        "name:ne": "किस्ट बैंक लिमिटेड",
        "nrb_class": "commercial",
        "operator": "KIST Bank Limited",
        "source": "2cpokhara"
      },
      "geometry": {
        "type": "Point",
        "coordinates": [
          83.9888015,
          28.2429634
        ]
      },
      "id": "node/4620194666"
    },
    {
      "type": "Feature",
      "properties": {
        "@id": "node/4623034652",
        "amenity": "atm",
        "name": "Century Commercial Bank Limited",
        "name:ne": "सेन्चुरी कमर्सियल बैंक लिमिटेड",
        "network": "VISA, Mastercard, Plus, National, Cirrus",
        "nrb_class": "commercial",
        "operator": "Century Development Bank",
        "source": "2cpokhara",
        "website": "www.myeasylink.com"
      },
      "geometry": {
        "type": "Point",
        "coordinates": [
          83.985005,
          28.2124286
        ]
      },
      "id": "node/4623034652"
    },
    {
      "type": "Feature",
      "properties": {
        "@id": "node/4623034653",
        "alt_name": "ATM",
        "amenity": "atm",
        "contact:phone": "061-539406",
        "name": "Reliable Developement ATM",
        "name:ne": "रिलायेवल देवलोपमेन्ट बैंक",
        "nrb_class": "development",
        "operator": "Reliable Development Bank",
        "source": "2cpokhara"
      },
      "geometry": {
        "type": "Point",
        "coordinates": [
          83.9850744,
          28.2125698
        ]
      },
      "id": "node/4623034653"
    },
    {
      "type": "Feature",
      "properties": {
        "@id": "node/4623063242",
        "alt_name": "Su-Th 09:45-04:00, FR 09:45-02:00",
        "amenity": "atm",
        "contact:phone": "539150/539151",
        "name": "Bank of Kathmandu Limited",
        "name:ne": "बैंक अफ काठमाडौँ लुम्बिनी लिमिटेड",
        "nrb_class": "commercial",
        "operator": "Bank of Kathmandu Lumnini Limited",
        "source": "2cpokhara",
        "website": "https://www.boklumbini.com/"
      },
      "geometry": {
        "type": "Point",
        "coordinates": [
          83.9871508,
          28.2201364
        ]
      },
      "id": "node/4623063242"
    },
    {
      "type": "Feature",
      "properties": {
        "@id": "node/4623063243",
        "alt_name": "ATM",
        "amenity": "atm",
        "name": "Citizen's Bank International Limited",
        "name:ne": "सिटीजेन्स बैंक इन्टरनेशनल लिमिटेड",
        "nrb_class": "commercial",
        "opening_hours": "Su-Th 10:00-05:30, Fr 10:00-04:30",
        "operator": "Citizen's Bank International Limited",
        "source": "2cpokhara"
      },
      "geometry": {
        "type": "Point",
        "coordinates": [
          83.9867708,
          28.2199979
        ]
      },
      "id": "node/4623063243"
    },
    {
      "type": "Feature",
      "properties": {
        "@id": "node/4623063244",
        "alt_name": "ATM",
        "amenity": "atm",
        "contact:phone": "+977 61 541491",
        "name": "Everest Bank Limited",
        "name:ne": "एभरेस्ट बैंक लिमिटेड",
        "network": "VISA, MasterCard, Maestro, VISA Electron, Cirrus, SCT",
        "nrb_class": "commercial",
        "operator": "Everest Bank Limited",
        "source": "2cpokhara",
        "website": "https://www.everestbankltd.com/"
      },
      "geometry": {
        "type": "Point",
        "coordinates": [
          83.987128,
          28.2200483
        ]
      },
      "id": "node/4623063244"
    },
    {
      "type": "Feature",
      "properties": {
        "@id": "node/4623063245",
        "addr:city": "Pokhara",
        "alt_name": "ATM",
        "amenity": "atm",
        "name": "Gandaki Bikash Bank Limited",
        "name:ne": "गण्डकी विकास बैंक लिमिटेड",
        "network": "VISA, Mastercard, Cirrus, VISA Electron, National",
        "nrb_class": "development",
        "operator": "Gandaki Development Bank",
        "source": "2cpokhara"
      },
      "geometry": {
        "type": "Point",
        "coordinates": [
          83.9864561,
          28.2185368
        ]
      },
      "id": "node/4623063245"
    },
    {
      "type": "Feature",
      "properties": {
        "@id": "node/4623063246",
        "alt_name": "ATM",
        "amenity": "atm",
        "contact:phone": "527503/527504",
        "name": "Global IME Bank Limited",
        "name:ne": "ग्लोबल आइ.एम.इ. बैंक  लिमिटेड",
        "network": "VISA, SCT, VISA Electron, Maestro, MasterCard, Cirrusm, National",
        "nrb_class": "commercial",
        "operator": "Global IME Bank",
        "source": "2cpokhara",
        "website": "www.globalimebank.com"
      },
      "geometry": {
        "type": "Point",
        "coordinates": [
          83.9866391,
          28.2177649
        ]
      },
      "id": "node/4623063246"
    },
    {
      "type": "Feature",
      "properties": {
        "@id": "node/4623063247",
        "alt_name": "ATM",
        "amenity": "atm",
        "name": "Himalayan Bank Limited",
        "name:ne": "हिमालयन बैंक लिमिटेड",
        "nrb_class": "commercial",
        "operator": "Himalayan Bank Limited",
        "source": "2cpokhara"
      },
      "geometry": {
        "type": "Point",
        "coordinates": [
          83.9869845,
          28.2192385
        ]
      },
      "id": "node/4623063247"
    },
    {
      "type": "Feature",
      "properties": {
        "@id": "node/4623063248",
        "alt_name": "ATM",
        "amenity": "atm",
        "contact:phone": "061537793",
        "drive_through": "no",
        "name": "Janata Bank Limited",
        "name:ne": "जनता बैंक लि.",
        "network": "VISA, Maestro, MasterCard, JCB, Discover, Diners Club International",
        "nrb_class": "commercial",
        "operator": "Janata Bank Nepal Limited",
        "source": "2cpokhara"
      },
      "geometry": {
        "type": "Point",
        "coordinates": [
          83.987016,
          28.219565
        ]
      },
      "id": "node/4623063248"
    },
    {
      "type": "Feature",
      "properties": {
        "@id": "node/4623063249",
        "alt_name": "ATM",
        "amenity": "atm",
        "name": "Kailash Bikash Bank Limited",
        "name:ne": "कैलाश विकास बैंक लि.",
        "network": "VISA, JCB, Mastercard, Discoverl, Cirrus, VISA Electron",
        "nrb_class": "development",
        "opening_hours": "Su-Th 09:00-05:00, Fr 09:00-03:00",
        "operator": "Kailash Bikash Bank",
        "source": "2cpokhara"
      },
      "geometry": {
        "type": "Point",
        "coordinates": [
          83.985923,
          28.2163568
        ]
      },
      "id": "node/4623063249"
    },
    {
      "type": "Feature",
      "properties": {
        "@id": "node/4623063250",
        "addr:city": "Pokhara Lekhnath Municipality",
        "addr:street": "Newroad 9",
        "alt_name": "Su-Th 10:00-06:00, FR 10:00-5:00",
        "amenity": "atm",
        "contact:fax": "061-538480",
        "contact:phone": "061-538479",
        "name": "Machhapuchchre Bank Limited",
        "name:ne": "माछापुछ्रे बैंक लिमिटेड",
        "network": "VISA, VISA Electron",
        "nrb_class": "commercial",
        "opening_hours": "24/7",
        "operator": "Machhapuchchre Bank",
        "phone": "061-538479",
        "source": "2cpokhara"
      },
      "geometry": {
        "type": "Point",
        "coordinates": [
          83.9869898,
          28.2210864
        ]
      },
      "id": "node/4623063250"
    },
    {
      "type": "Feature",
      "properties": {
        "@id": "node/4623063251",
        "alt_name": "ATM",
        "amenity": "atm",
        "name": "NCC Bank Limited",
        "name:ne": "एन सि सि बैंक लिमिटेड",
        "network": "VISA, VISA Electron, Maestro, MaestroCard, National",
        "nrb_class": "commercial",
        "operator": "NCC Bank Limited",
        "source": "2cpokhara"
      },
      "geometry": {
        "type": "Point",
        "coordinates": [
          83.9865748,
          28.2175884
        ]
      },
      "id": "node/4623063251"
    },
    {
      "type": "Feature",
      "properties": {
        "@id": "node/4623063252",
        "addr:city": "Pokhara",
        "addr:street": "New Road-8, Pokhara",
        "alt_name": "ATM",
        "amenity": "atm",
        "name": "Pokhara Finance Limited",
        "name:ne": "पोखरा फाइनान्स लिमिटेड",
        "network": "VISA, Mastercard, Cirrus, VISA Electron, SCT",
        "nrb_class": "finance companies",
        "operator": "Pokhara Finance",
        "source": "2cpokhara"
      },
      "geometry": {
        "type": "Point",
        "coordinates": [
          83.9865647,
          28.2189782
        ]
      },
      "id": "node/4623063252"
    },
    {
      "type": "Feature",
      "properties": {
        "@id": "node/4623063253",
        "alt_name": "ATM",
        "amenity": "atm",
        "contact:phone": "+977 61 537793",
        "name": "Prabhu Bank Limited",
        "name:ne": "प्रभु बैंक लिमिटेड",
        "nrb_class": "commercial",
        "operator": "Prabhu Bank",
        "source": "2cpokhara"
      },
      "geometry": {
        "type": "Point",
        "coordinates": [
          83.9870338,
          28.2196812
        ]
      },
      "id": "node/4623063253"
    },
    {
      "type": "Feature",
      "properties": {
        "@id": "node/4623063254",
        "alt_name": "ATM",
        "amenity": "atm",
        "contact:fax": "061-538229",
        "contact:phone": "061-5323715, 523716, 523717",
        "name": "Sanima Bank Limited",
        "name:ne": "सानीमा बैंक लिमिटेड",
        "network": "VISA, MasterCard, UnionPay, National",
        "nrb_class": "development",
        "opening_hours": "24/7",
        "operator": "Sanima Bikash Bank",
        "source": "2cpokhara",
        "website": "https://www.shangrilabank.com/"
      },
      "geometry": {
        "type": "Point",
        "coordinates": [
          83.987303,
          28.2208844
        ]
      },
      "id": "node/4623063254"
    },
    {
      "type": "Feature",
      "properties": {
        "@id": "node/4623063256",
        "alt_name": "Su-Th 10:00-06:00, FR 10:00-5:00",
        "amenity": "atm",
        "contact:phone": "523875, 523876, 536231, 536230",
        "name": "Standard Chartered Bank Limited",
        "name:ne": "इस्टानडर्ड चाटार्ड बैंक लिमिटेड",
        "nrb_class": "commercial",
        "operator": "Standard Chartered Bank",
        "phone": "523875, 523876, 536231, 536230",
        "source": "2cpokhara",
        "website": "www.sc.com.np"
      },
      "geometry": {
        "type": "Point",
        "coordinates": [
          83.9874717,
          28.2205704
        ]
      },
      "id": "node/4623063256"
    },
    {
      "type": "Feature",
      "properties": {
        "@id": "node/4623063257",
        "alt_name": "ATM",
        "amenity": "atm",
        "name": "Sunrise Bank Limited",
        "name:ne": "सनराईज बैंक लिमिटेड",
        "network": "VISA, SCT, VISA Electron, Maestro, MasterCard, Cirrus",
        "nrb_class": "commercial",
        "opening_hours": "Su-Fr 10:00-03:00, Fr 10:00-01:00",
        "operator": "Sunrise Bank Limited",
        "source": "2cpokhara"
      },
      "geometry": {
        "type": "Point",
        "coordinates": [
          83.9868302,
          28.2186748
        ]
      },
      "id": "node/4623063257"
    },
    {
      "type": "Feature",
      "properties": {
        "@id": "node/4623063258",
        "alt_name": "ATM",
        "amenity": "atm",
        "name": "Union Finance Limited",
        "name:ne": "युनियन फाइनान्स लिमिटेड",
        "network": "VISA, MasterCard, Maestro, VISA Electron, SCT, JCB",
        "nrb_class": "finance companies",
        "operator": "Union Finance Limited",
        "source": "2cpokhara"
      },
      "geometry": {
        "type": "Point",
        "coordinates": [
          83.987071,
          28.2198569
        ]
      },
      "id": "node/4623063258"
    },
    {
      "type": "Feature",
      "properties": {
        "@id": "node/4623063259",
        "alt_name": "ATM",
        "amenity": "atm",
        "contact:phone": "061-522122",
        "name": "Vibor Society Development Bank Limited",
        "name:ne": "भिवोर विकास बैंक लि.",
        "nrb_class": "commercial",
        "operator": "Vibor Society Development Bank",
        "phone": "061-522122",
        "source": "2cpokhara"
      },
      "geometry": {
        "type": "Point",
        "coordinates": [
          83.985343,
          28.2135407
        ]
      },
      "id": "node/4623063259"
    },
    {
      "type": "Feature",
      "properties": {
        "@id": "node/4623078357",
        "alt_name": "ATM",
        "amenity": "atm",
        "contact:fax": "+977 61 528324",
        "contact:phone": "+977 61 528325",
        "name": "Apex Development Bank Limited",
        "name:ne": "अपेक्स डेभलपमेन्ट बैंक लिमिटेड",
        "network": "SCT",
        "nrb_class": "development",
        "operator": "Apex Development Bank",
        "source": "2cpokhara",
        "website": "www.apexbanknepal.com"
      },
      "geometry": {
        "type": "Point",
        "coordinates": [
          83.9875886,
          28.2235419
        ]
      },
      "id": "node/4623078357"
    },
    {
      "type": "Feature",
      "properties": {
        "@id": "node/4623078358",
        "amenity": "atm",
        "name": "Gandaki Development Bank Limited",
        "name:ne": "ग०डकी बिकास बैंक लिमिटेड",
        "nrb_class": "development",
        "operator": "Gandaki Bikas Bank",
        "source": "2cpokhara"
      },
      "geometry": {
        "type": "Point",
        "coordinates": [
          83.9880604,
          28.2240924
        ]
      },
      "id": "node/4623078358"
    },
    {
      "type": "Feature",
      "properties": {
        "@id": "node/4623078359",
        "amenity": "atm",
        "name": "International Development Bank Limited",
        "name:ne": "अन्तरराष्ट्रिय विकास बैंक लिमिटेड",
        "network": "VISA, SCT, VISA Electronic. Electronic, Maestro, MasterCard, Cirrus",
        "nrb_class": "development",
        "operator": "International Development Bank Limited",
        "source": "2cpokhara"
      },
      "geometry": {
        "type": "Point",
        "coordinates": [
          83.9861909,
          28.22392
        ]
      },
      "id": "node/4623078359"
    },
    {
      "type": "Feature",
      "properties": {
        "@id": "node/4623078360",
        "alt_name": "ATM",
        "amenity": "atm",
        "name": "Kailash Bikash Bank Limited",
        "name:ne": "कैलास विकास बैंक लिमिटेड",
        "network": "SCT, VISA, Mastercard, Cirrus, Maestro",
        "nrb_class": "development",
        "operator": "Kailash Development Bank",
        "source": "2cpokhara"
      },
      "geometry": {
        "type": "Point",
        "coordinates": [
          83.9873442,
          28.2225615
        ]
      },
      "id": "node/4623078360"
    },
    {
      "type": "Feature",
      "properties": {
        "@id": "node/4623078361",
        "alt_name": "ATM",
        "amenity": "atm",
        "contact:fax": "+977 61 523699",
        "contact:phone": "+977 61 523699",
        "name": "Kamana Bikash Bank Limited",
        "name:ne": "कामना विकास बैंक लिमिटेड",
        "nrb_class": "development",
        "opening_hours": "Su-Th 09:45-06:00, Fr 09:45-04:00, Sa 11:00-02:00",
        "operator": "Kamana Bikash Bank",
        "source": "2cpokhara"
      },
      "geometry": {
        "type": "Point",
        "coordinates": [
          83.9872017,
          28.2218569
        ]
      },
      "id": "node/4623078361"
    },
    {
      "type": "Feature",
      "properties": {
        "@id": "node/4623078362",
        "alt_name": "ATM",
        "amenity": "atm",
        "name": "Kasthamandap Development Bank Limited",
        "name:ne": "कास्ठमण्डप डेभलपमेन्ट बैंक लिमिटेड",
        "network": "VISA, SCT, VISA Electron, UnionPay",
        "nrb_class": "development",
        "operator": "Kasthamandap Development Bank",
        "source": "2cpokhara"
      },
      "geometry": {
        "type": "Point",
        "coordinates": [
          83.985861,
          28.2243228
        ]
      },
      "id": "node/4623078362"
    },
    {
      "type": "Feature",
      "properties": {
        "@id": "node/4623078363",
        "alt_name": "ATM",
        "amenity": "atm",
        "contact:fax": "061-541127",
        "contact:phone": "061-522656, 540656",
        "name": "Muktinath Bikash Bank Limited",
        "name:ne": "मुक्तिनाथ बिकाश बैंक लिमिटेड",
        "network": "VISA, VISA Electron, MasterCard, Maestro, Cirrus, National,",
        "nrb_class": "development",
        "operator": "Mukthinath Bikash Bank",
        "phone": "061-522656, 540656",
        "source": "2cpokhara",
        "website": "https://www.muktinathbank.com.np/"
      },
      "geometry": {
        "type": "Point",
        "coordinates": [
          83.9878505,
          28.2232682
        ]
      },
      "id": "node/4623078363"
    },
    {
      "type": "Feature",
      "properties": {
        "@id": "node/4623078364",
        "alt_name": "ATM",
        "amenity": "atm",
        "contact:phone": "533134/533135",
        "name": "Nepal Bangladesh Bank Limited",
        "name:ne": "नेपाल बंगलादेश बैंक लिमिटेड",
        "network": "SCT, VISA, Mastercard, Maestro, Discover, JCB, Dinners Club International, UnionPay",
        "nrb_class": "commercial",
        "operator": "Nepal Banglasesh Bank",
        "source": "2cpokhara",
        "website": "https://www.nbbl.com.np/"
      },
      "geometry": {
        "type": "Point",
        "coordinates": [
          83.9878719,
          28.2234017
        ]
      },
      "id": "node/4623078364"
    },
    {
      "type": "Feature",
      "properties": {
        "@id": "node/4623078365",
        "alt_name": "ATM",
        "amenity": "atm",
        "contact:phone": "538919, 539276",
        "name": "Nepal Investment Bank Limited",
        "name:ne": "नेपाल इन्भेस्टमेन्ट बैंक लिमिटेड",
        "nrb_class": "commercial",
        "operator": "Nepal Investment Bank Limited",
        "phone": "538919, 539276",
        "source": "2cpokhara",
        "website": "www.nibl.com.np"
      },
      "geometry": {
        "type": "Point",
        "coordinates": [
          83.9859049,
          28.2243051
        ]
      },
      "id": "node/4623078365"
    },
    {
      "type": "Feature",
      "properties": {
        "@id": "node/4623078366",
        "alt_name": "ATM",
        "amenity": "atm",
        "name": "Prime Commercial Bank Limited",
        "name:ne": "प्राइम कमर्सियल बैंक लि.",
        "nrb_class": "commercial",
        "operator": "Prime Commercial Bank Limited",
        "source": "2cpokhara"
      },
      "geometry": {
        "type": "Point",
        "coordinates": [
          83.9872843,
          28.2222533
        ]
      },
      "id": "node/4623078366"
    },
    {
      "type": "Feature",
      "properties": {
        "@id": "node/4623078367",
        "alt_name": "ATM",
        "amenity": "atm",
        "contact:phone": "061-551876",
        "name": "Nepal SBI Bank Limited",
        "name:ne": "नेपाल एस.वि.आइ.बैंक लिमिटेड",
        "network": "VISA, VISA Electron, MasterCard, Maestro, Cirrus",
        "nrb_class": "commercial",
        "operator": "Nepal SBI Bank",
        "source": "2cpokhara",
        "website": "https://nepalsbi.com.np"
      },
      "geometry": {
        "type": "Point",
        "coordinates": [
          83.9872274,
          28.2220107
        ]
      },
      "id": "node/4623078367"
    },
    {
      "type": "Feature",
      "properties": {
        "@id": "node/4631858309",
        "alt_name": "ATM",
        "amenity": "atm",
        "name": "Civil Bank Limited",
        "name:ne": "सिभिल बैंक लिमिटेड",
        "nrb_class": "commercial",
        "operator": "Civil Bank Limited",
        "source": "2cpokhara"
      },
      "geometry": {
        "type": "Point",
        "coordinates": [
          83.9569716,
          28.2133948
        ]
      },
      "id": "node/4631858309"
    },
    {
      "type": "Feature",
      "properties": {
        "@id": "node/4631858310",
        "alt_name": "ATM",
        "amenity": "atm",
        "name": "Global IME Bank Limited",
        "name:ne": "ग्लोबल आइ.एम.इ. बैंक लिमिटेड",
        "nrb_class": "commercial",
        "opening_hours": "24/7",
        "operator": "Global IME Bank",
        "source": "2cpokhara"
      },
      "geometry": {
        "type": "Point",
        "coordinates": [
          83.9569911,
          28.213344
        ]
      },
      "id": "node/4631858310"
    },
    {
      "type": "Feature",
      "properties": {
        "@id": "node/4631858311",
        "alt_name": "ATM",
        "amenity": "atm",
        "name": "Himalayan Bank Limited",
        "name:ne": "हिमालयन बैंक लिमिटेड",
        "nrb_class": "commercial",
        "operator": "Himalayan Bank Limited",
        "source": "2cpokhara"
      },
      "geometry": {
        "type": "Point",
        "coordinates": [
          83.9569757,
          28.2134052
        ]
      },
      "id": "node/4631858311"
    },
    {
      "type": "Feature",
      "properties": {
        "@id": "node/4631858312",
        "alt_name": "ATM",
        "amenity": "atm",
        "name": "NMB Bank Limited",
        "name:ne": "एन एम वि ए.टि.एम",
        "nrb_class": "commercial",
        "operator": "NMB Bank Limited",
        "source": "2cpokhara"
      },
      "geometry": {
        "type": "Point",
        "coordinates": [
          83.9569787,
          28.2133535
        ]
      },
      "id": "node/4631858312"
    },
    {
      "type": "Feature",
      "properties": {
        "@id": "node/4631858313",
        "alt_name": "ATM",
        "amenity": "atm",
        "name": "Nabil Bank Limited",
        "name:ne": "नबिल बैंक ए.टि.एम",
        "nrb_class": "commercial",
        "operator": "Nabil Bank Limited",
        "source": "2cpokhara"
      },
      "geometry": {
        "type": "Point",
        "coordinates": [
          83.9569683,
          28.2133733
        ]
      },
      "id": "node/4631858313"
    },
    {
      "type": "Feature",
      "properties": {
        "@id": "node/4631858315",
        "alt_name": "ATM",
        "amenity": "atm",
        "name": "Prabhu Bank Limited",
        "name:ne": "प्रभु बैंक ए.टि.एम",
        "nrb_class": "commercial",
        "operator": "Prabhu Bank Limited",
        "source": "2cpokhara"
      },
      "geometry": {
        "type": "Point",
        "coordinates": [
          83.9569696,
          28.2133848
        ]
      },
      "id": "node/4631858315"
    },
    {
      "type": "Feature",
      "properties": {
        "@id": "node/4631858316",
        "alt_name": "ATM",
        "amenity": "atm",
        "name": "Siddhartha Bank Limited",
        "name:ne": "सिद्धार्थ ए.टि.एम",
        "nrb_class": "commercial",
        "opening_hours": "24/7",
        "operator": "Siddhartha Bank Ltd.",
        "source": "2cpokhara"
      },
      "geometry": {
        "type": "Point",
        "coordinates": [
          83.9570119,
          28.213336
        ]
      },
      "id": "node/4631858316"
    },
    {
      "type": "Feature",
      "properties": {
        "@id": "node/4631858317",
        "alt_name": "ATM",
        "amenity": "atm",
        "name": "Standard Chartered Bank Limited",
        "name:ne": "इस्टानडर्ड चाटार्ड बैंक लिमिटेड",
        "nrb_class": "commercial",
        "operator": "Standard Chartered Bank Nepal Ltd.",
        "source": "2cpokhara"
      },
      "geometry": {
        "type": "Point",
        "coordinates": [
          83.95697,
          28.2133623
        ]
      },
      "id": "node/4631858317"
    },
    {
      "type": "Feature",
      "properties": {
        "@id": "node/4631876715",
        "alt_name": "ATM",
        "amenity": "atm",
        "name": "Bank of Kathmandu Lumbini Limited",
        "name:ne": "बैंक अफ काठमाडौँ लुम्बिनी लिमिटेड",
        "nrb_class": "commercial",
        "operator": "Bank of Kathmandu Lumbini Ltd.",
        "source": "2cpokhara"
      },
      "geometry": {
        "type": "Point",
        "coordinates": [
          83.9570099,
          28.2120054
        ]
      },
      "id": "node/4631876715"
    },
    {
      "type": "Feature",
      "properties": {
        "@id": "node/4631876716",
        "alt_name": "ATM",
        "amenity": "atm",
        "name": "Himalayan Bank Limited",
        "name:ne": "हिमालयन बैंक ए.टि.एम",
        "nrb_class": "commercial",
        "operator": "Himalayan Bank Limited",
        "source": "2cpokhara"
      },
      "geometry": {
        "type": "Point",
        "coordinates": [
          83.961114,
          28.2059502
        ]
      },
      "id": "node/4631876716"
    },
    {
      "type": "Feature",
      "properties": {
        "@id": "node/4631876717",
        "alt_name": "ATM",
        "amenity": "atm",
        "name": "Siddhartha Bank Limited",
        "name:ne": "सिद्धार्थ बैंक लिमिटेड",
        "nrb_class": "commercial",
        "operator": "Siddhartha Bank Ltd.",
        "source": "2cpokhara"
      },
      "geometry": {
        "type": "Point",
        "coordinates": [
          83.9573636,
          28.2088459
        ]
      },
      "id": "node/4631876717"
    },
    {
      "type": "Feature",
      "properties": {
        "@id": "node/4716291193",
        "alt_name": "ATM",
        "amenity": "atm",
        "name": "Kailash Bikash Bank Limited",
        "name:ne": "कैलाश विकास बैंक लि.",
        "nrb_class": "development",
        "operator": "kailash bikash bank",
        "source": "2cpokhara"
      },
      "geometry": {
        "type": "Point",
        "coordinates": [
          83.9723901,
          28.26122
        ]
      },
      "id": "node/4716291193"
    },
    {
      "type": "Feature",
      "properties": {
        "@id": "node/4791369934",
        "amenity": "atm",
        "name": "Rastriya Banijya Bank",
        "name:ne": "राष्ट्रीय बाणिज्य बैंक",
        "nrb_class": "commercial",
        "operator": "Rastriya Banijya Bank"
      },
      "geometry": {
        "type": "Point",
        "coordinates": [
          83.9617931,
          28.206229
        ]
      },
      "id": "node/4791369934"
    },
    {
      "type": "Feature",
      "properties": {
        "@id": "node/4793368228",
        "alt_name": "ATM",
        "amenity": "atm",
        "name": "NIC Asia Bank Limited",
        "name:ne": "एन.आइ.सी. एसिया बैंक लिमिटेड",
        "nrb_class": "commercial",
        "operator": "NIC Asia Bank Limited",
        "source": "2cpokhara"
      },
      "geometry": {
        "type": "Point",
        "coordinates": [
          83.9843725,
          28.2112217
        ]
      },
      "id": "node/4793368228"
    },
    {
      "type": "Feature",
      "properties": {
        "@id": "node/4798534239",
        "amenity": "atm",
        "name": "Rastriya Banijya Bank Limited",
        "name:ne": "राष्ट्रिय वाणिज्य बैंक लिमिटेड",
        "nrb_class": "commercial",
        "operator": "Rastriya Banijya Bank Limited",
        "operator:type": "government",
        "phone": "522229, 520549",
        "source": "2cpokhara",
        "website": "https://www.rbb.com.np/"
      },
      "geometry": {
        "type": "Point",
        "coordinates": [
          83.9908729,
          28.2247975
        ]
      },
      "id": "node/4798534239"
    },
    {
      "type": "Feature",
      "properties": {
        "@id": "node/4798561855",
        "alt_name": "ATM",
        "amenity": "atm",
        "name": "Fewa Bikash Bank Limited",
        "name:ne": "फेवा विकास बैंक लिमिटेड",
        "nrb_class": "development",
        "operator": "Fewa Bikash Bank",
        "source": "2cpokhara"
      },
      "geometry": {
        "type": "Point",
        "coordinates": [
          84.0007018,
          28.2052375
        ]
      },
      "id": "node/4798561855"
    },
    {
      "type": "Feature",
      "properties": {
        "@id": "node/4798561857",
        "alt_name": "ATM",
        "amenity": "atm",
        "name": "Machhapuchchre Bank Limited",
        "name:ne": "माछापुछ्रे बैंक लिमिटेड",
        "nrb_class": "commercial",
        "opening_hours": "9:00-20:00",
        "operator": "Machhapuchchre Bank",
        "source": "2cpokhara"
      },
      "geometry": {
        "type": "Point",
        "coordinates": [
          84.0022963,
          28.2041686
        ]
      },
      "id": "node/4798561857"
    },
    {
      "type": "Feature",
      "properties": {
        "@id": "node/4798561859",
        "amenity": "atm",
        "name": "Om Development Bank Limited",
        "name:ne": "ओम डेभलपमेन्ट बैंक लिमिटेड",
        "nrb_class": "development",
        "operator": "OM Development Bank",
        "phone": "+977 61 432150;+977 61 432151",
        "source": "2cpokhara"
      },
      "geometry": {
        "type": "Point",
        "coordinates": [
          84.0007851,
          28.2047334
        ]
      },
      "id": "node/4798561859"
    },
    {
      "type": "Feature",
      "properties": {
        "@id": "node/4798561860",
        "amenity": "atm",
        "name": "Rastriya Banijya Bank ATM",
        "name:ne": "राष्ट्रीय बाढ़िज्य बैंक",
        "nrb_class": "commercial",
        "operator": "Rastriya Banijya Bank",
        "source": "2cpokhara"
      },
      "geometry": {
        "type": "Point",
        "coordinates": [
          84.0005527,
          28.2047728
        ]
      },
      "id": "node/4798561860"
    },
    {
      "type": "Feature",
      "properties": {
        "@id": "node/4798561861",
        "alt_name": "ATM",
        "amenity": "atm",
        "name": "Prabhu Bank Limited",
        "name:ne": "प्रभु बैंक लिमिटेड",
        "nrb_class": "commercial",
        "operator": "Prabhu Bank",
        "source": "2cpokhara"
      },
      "geometry": {
        "type": "Point",
        "coordinates": [
          84.0003975,
          28.2048329
        ]
      },
      "id": "node/4798561861"
    },
    {
      "type": "Feature",
      "properties": {
        "@id": "node/4798561862",
        "amenity": "atm",
        "name": "Himalayan Bank Limited",
        "name:ne": "हिमालयन बैंक लिमिटेड",
        "nrb_class": "commercial",
        "operator": "Himalayan Bank",
        "source": "2cpokhara"
      },
      "geometry": {
        "type": "Point",
        "coordinates": [
          84.0000091,
          28.2049102
        ]
      },
      "id": "node/4798561862"
    },
    {
      "type": "Feature",
      "properties": {
        "@id": "node/4798610253",
        "amenity": "atm",
        "currency:NPR": "yes",
        "name": "Om Development Bank",
        "name:ne": "ओम डेभलपमेन्ट बैंक लिमिटेड",
        "nrb_class": "development",
        "opening_hours": "24/7",
        "operator": "Om Development Bank Limited",
        "operator:type": "private",
        "source": "2C_Pokhara Field Visit 2018"
      },
      "geometry": {
        "type": "Point",
        "coordinates": [
          83.9903425,
          28.2260703
        ]
      },
      "id": "node/4798610253"
    },
    {
      "type": "Feature",
      "properties": {
        "@id": "node/4798636065",
        "alt_name": "ATM",
        "amenity": "atm",
        "name": "Kamana Bikash Bank Limited",
        "name:ne": "कामना विकास बैंक लिमिटेड",
        "nrb_class": "development",
        "operator": "Kamana Bikash Bank",
        "source": "2cpokhara"
      },
      "geometry": {
        "type": "Point",
        "coordinates": [
          83.9865048,
          28.2486212
        ]
      },
      "id": "node/4798636065"
    },
    {
      "type": "Feature",
      "properties": {
        "@id": "node/4798636098",
        "alt_name": "ATM",
        "amenity": "atm",
        "name": "Fewa Bikash Bank Limited",
        "name:ne": "फेवा बिकास बैंक लिमिटेड",
        "nrb_class": "development",
        "operator": "Fewa Bikash Bank",
        "source": "2cpokhara"
      },
      "geometry": {
        "type": "Point",
        "coordinates": [
          83.9882337,
          28.2400741
        ]
      },
      "id": "node/4798636098"
    },
    {
      "type": "Feature",
      "properties": {
        "@id": "node/4798636099",
        "alt_name": "ATM",
        "amenity": "atm",
        "name": "Om Development Bank",
        "name:ne": "ओम डेभलपमेन्ट बैंक लिमिटेड",
        "nrb_class": "development",
        "operator": "Om Development Bank Limited",
        "operator:type": "private",
        "source": "2C_Pokhara Field Visit 2018"
      },
      "geometry": {
        "type": "Point",
        "coordinates": [
          83.9883938,
          28.2398143
        ]
      },
      "id": "node/4798636099"
    },
    {
      "type": "Feature",
      "properties": {
        "@id": "node/4798646981",
        "alt_name": "ATM",
        "amenity": "atm",
        "name": "Machhapuchchre Bank Limited",
        "name:ne": "माछापुछ्रे बैंक लिमिटेड",
        "nrb_class": "commercial",
        "operator": "Machhapuchchre Bank",
        "source": "2cpokhara"
      },
      "geometry": {
        "type": "Point",
        "coordinates": [
          83.9718716,
          28.261441
        ]
      },
      "id": "node/4798646981"
    },
    {
      "type": "Feature",
      "properties": {
        "@id": "node/4798686264",
        "alt_name": "ATM",
        "amenity": "atm",
        "name": "City Development Bank Limited",
        "name:ne": "सिटि डेभलपमेन्ट बैंक लिमिटेड",
        "nrb_class": "development",
        "operator": "City Development Bank",
        "source": "2cpokhara"
      },
      "geometry": {
        "type": "Point",
        "coordinates": [
          83.988892,
          28.2241018
        ]
      },
      "id": "node/4798686264"
    },
    {
      "type": "Feature",
      "properties": {
        "@id": "node/4805458672",
        "amenity": "atm",
        "name": "NCC Bank Bank Limited",
        "name:ne": "एन सि सि बैंक लिमिटेड",
        "nrb_class": "commercial",
        "operator": "NCC Bank Limited",
        "source": "2cpokhara"
      },
      "geometry": {
        "type": "Point",
        "coordinates": [
          84.0157638,
          28.2150817
        ]
      },
      "id": "node/4805458672"
    },
    {
      "type": "Feature",
      "properties": {
        "@id": "node/4807390279",
        "amenity": "atm",
        "contact:email": "sushil lamichhane@mbl.com.np",
        "contact:phone": "5617117",
        "name": "Machhapuchchre Bank Limited",
        "name:ne": "माछापुच्छ्रे बैंक लिमिटेड",
        "nrb_class": "commercial",
        "opening_hours": "10:00-16:00",
        "operator:type": "public",
        "source": "2cpokhara"
      },
      "geometry": {
        "type": "Point",
        "coordinates": [
          84.0493467,
          28.1755148
        ]
      },
      "id": "node/4807390279"
    },
    {
      "type": "Feature",
      "properties": {
        "@id": "node/4817523683",
        "alt_name": "ATM",
        "amenity": "atm",
        "name": "Laxmi Bank Limited",
        "name:ne": "लक्ष्मी बैंक लिमिटेड",
        "nrb_class": "commercial",
        "operator": "Laxmi Bank Limited",
        "source": "2cpokhara"
      },
      "geometry": {
        "type": "Point",
        "coordinates": [
          84.0097519,
          28.2018291
        ]
      },
      "id": "node/4817523683"
    },
    {
      "type": "Feature",
      "properties": {
        "@id": "node/4819569765",
        "addr:city": "Pokhara Lekhnath Municipality",
        "addr:street": "Tersapatti Road",
        "amenity": "atm",
        "currency:NPR": "yes",
        "name": "Nepal Bank Limited",
        "name:ne": "नेपाल बैंक लिमिटेड",
        "nrb_class": "commercial",
        "opening_hours": "24/7",
        "operator": "Nepal Bank Limited",
        "source": "2cpokhara;#dial2;#youthmapper"
      },
      "geometry": {
        "type": "Point",
        "coordinates": [
          83.9899737,
          28.2270408
        ]
      },
      "id": "node/4819569765"
    },
    {
      "type": "Feature",
      "properties": {
        "@id": "node/4833978115",
        "addr:city": "Pokhara",
        "addr:street": "Mahendrapool",
        "amenity": "atm",
        "name": "Om Development Bank",
        "name:ne": "ओम डेभलपमेन्ट बैंक लिमिटेड",
        "nrb_class": "development",
        "opening_hours": "24/7",
        "operator": "Om Development Bank Limited",
        "operator:type": "private",
        "source": "2C_Pokhara Field Visit 2018"
      },
      "geometry": {
        "type": "Point",
        "coordinates": [
          83.9888477,
          28.2241024
        ]
      },
      "id": "node/4833978115"
    },
    {
      "type": "Feature",
      "properties": {
        "@id": "node/4833978116",
        "alt_name": "ATM",
        "amenity": "atm",
        "name": "Kamana Bikash Bank Limited",
        "name:ne": "कामना विकास बैंक लिमिटेड",
        "nrb_class": "development",
        "operator": "Kamana Bikash Bank Limited",
        "source": "2cpokhara"
      },
      "geometry": {
        "type": "Point",
        "coordinates": [
          83.9892254,
          28.2240872
        ]
      },
      "id": "node/4833978116"
    },
    {
      "type": "Feature",
      "properties": {
        "@id": "node/4834261023",
        "alt_name": "ATM",
        "amenity": "atm",
        "name": "Siddhartha Bank Limited",
        "name:ne": "सिद्धार्थ ए.टि.एम",
        "nrb_class": "commercial",
        "operator": "Siddhartha Bank Limited",
        "source": "2cpokhara"
      },
      "geometry": {
        "type": "Point",
        "coordinates": [
          83.9943573,
          28.2060598
        ]
      },
      "id": "node/4834261023"
    },
    {
      "type": "Feature",
      "properties": {
        "@id": "node/4867426551",
        "amenity": "atm",
        "name": "Fewa Bikash Bank Limited",
        "name:ne": "फेवा बिकास बैंक लिमिटेड",
        "nrb_class": "development",
        "operator": "Fewa Bank",
        "source": "2cpokhara"
      },
      "geometry": {
        "type": "Point",
        "coordinates": [
          84.0575666,
          28.1627485
        ]
      },
      "id": "node/4867426551"
    },
    {
      "type": "Feature",
      "properties": {
        "@id": "node/4867438245",
        "addr:city": "Pokhara Lekhnath Metropolitan City",
        "addr:place": "Tal Chowk",
        "addr:street": "Prithvi Highway",
        "amenity": "atm",
        "contact:phone": "560777",
        "name": "Everest Bank Limited",
        "name:ne": "एभरेष्ट बैंक लिमिटेड",
        "nrb_class": "commercial",
        "opening_hours": "Su-Fr 10:00-17:00",
        "operator": "Everest Bank Limited",
        "phone": "061-560251, 560777",
        "source": "2cpokhara"
      },
      "geometry": {
        "type": "Point",
        "coordinates": [
          84.0568169,
          28.1628795
        ]
      },
      "id": "node/4867438245"
    },
    {
      "type": "Feature",
      "properties": {
        "@id": "node/4867463061",
        "amenity": "atm",
        "name": "Fewa Bikash Bank Limited",
        "name:ne": "फेवा बिकास बैंक लिमिटेड",
        "nrb_class": "development",
        "operator": "Fewa Bank",
        "source": "2cpokhara",
        "website": "www.fewabank.com.np/about-us/"
      },
      "geometry": {
        "type": "Point",
        "coordinates": [
          83.957311,
          28.2129979
        ]
      },
      "id": "node/4867463061"
    },
    {
      "type": "Feature",
      "properties": {
        "@id": "node/4867470104",
        "amenity": "atm",
        "name": "Garima Bikash Bank Limited",
        "name:ne": "गरिमा विकाश बैंक लिमिटेड",
        "nrb_class": "development",
        "operator": "Garima Bikash Bank",
        "source": "2cpokhara"
      },
      "geometry": {
        "type": "Point",
        "coordinates": [
          83.9843423,
          28.2109994
        ]
      },
      "id": "node/4867470104"
    },
    {
      "type": "Feature",
      "properties": {
        "@id": "node/4867473632",
        "amenity": "atm",
        "name": "Kumari Bank Limited",
        "name:ne": "कुमारी बैंक लिमिटेड",
        "nrb_class": "commercial",
        "operator": "Kumari Bank",
        "source": "2cpokhara"
      },
      "geometry": {
        "type": "Point",
        "coordinates": [
          83.9875073,
          28.2232795
        ]
      },
      "id": "node/4867473632"
    },
    {
      "type": "Feature",
      "properties": {
        "@id": "node/4867477411",
        "amenity": "atm",
        "name": "Kailash Bikash Bank Limited",
        "name:ne": "कैलाश विकास बैंक लिमिटेड",
        "nrb_class": "development",
        "operator": "Kailash Bank",
        "source": "2cpokhara"
      },
      "geometry": {
        "type": "Point",
        "coordinates": [
          83.9570192,
          28.2120896
        ]
      },
      "id": "node/4867477411"
    },
    {
      "type": "Feature",
      "properties": {
        "@id": "node/4867480965",
        "amenity": "atm",
        "name": "Machhapuchchre Bank Limited",
        "name:ne": "माछापुछ्रे बैंक लिमिटेड",
        "nrb_class": "commercial",
        "operator": "Machhapuchchre Bank Limited",
        "phone": "061-463200, 463700",
        "source": "2cpokhara",
        "website": "https://www.machbank.com/"
      },
      "geometry": {
        "type": "Point",
        "coordinates": [
          83.9571384,
          28.2087844
        ]
      },
      "id": "node/4867480965"
    },
    {
      "type": "Feature",
      "properties": {
        "@id": "node/4867506606",
        "amenity": "atm",
        "name": "Shangri-la Development Bank",
        "name:ne": "सांग्रिला विकास बैंक लिमिटेड",
        "nrb_class": "development",
        "operator": "Shangri-la Development Bank Limited"
      },
      "geometry": {
        "type": "Point",
        "coordinates": [
          83.9953096,
          28.2012173
        ]
      },
      "id": "node/4867506606"
    },
    {
      "type": "Feature",
      "properties": {
        "@id": "node/4867585884",
        "amenity": "atm",
        "name": "Sunrise Bank Limited",
        "nrb_class": "commercial",
        "operator": "Sunrise Bank Limited",
        "source": "2cpokhara"
      },
      "geometry": {
        "type": "Point",
        "coordinates": [
          83.9575565,
          28.2082645
        ]
      },
      "id": "node/4867585884"
    },
    {
      "type": "Feature",
      "properties": {
        "@id": "node/4867591380",
        "amenity": "atm",
        "name": "Lumbini Bikash Bank",
        "name:ne": "लुम्बिनी बिकाश बैंक",
        "nrb_class": "development",
        "operator": "Lumbini Bikash Bank Limited",
        "operator:type": "private",
        "source": "2cpokhara"
      },
      "geometry": {
        "type": "Point",
        "coordinates": [
          83.9950012,
          28.2025814
        ]
      },
      "id": "node/4867591380"
    },
    {
      "type": "Feature",
      "properties": {
        "@id": "node/4961615322",
        "alt_name": "ATM",
        "amenity": "atm",
        "contact:fax": "521107",
        "contact:phone": "061-528445, 520458, 520156",
        "contact:website": "www.adbl.gov.np",
        "name": "Agriculture Development Bank Limited",
        "name:ne": "कृषि विकास बैंक लिमिटेड",
        "nrb_class": "commercial",
        "operator": "Agriculture Development Bank Limited",
        "source": "2cpokhara"
      },
      "geometry": {
        "type": "Point",
        "coordinates": [
          83.9881917,
          28.2117171
        ]
      },
      "id": "node/4961615322"
    },
    {
      "type": "Feature",
      "properties": {
        "@id": "node/4961615323",
        "amenity": "atm",
        "name": "Machhapuchchhre Bank Limited",
        "operator": "Machhapuchhre Bank Ltd"
      },
      "geometry": {
        "type": "Point",
        "coordinates": [
          83.9880319,
          28.2113069
        ]
      },
      "id": "node/4961615323"
    },
    {
      "type": "Feature",
      "properties": {
        "@id": "node/5040902843",
        "amenity": "atm",
        "name": "Nabil Bank",
        "operator": "Nabil Bank"
      },
      "geometry": {
        "type": "Point",
        "coordinates": [
          83.9573092,
          28.2089663
        ]
      },
      "id": "node/5040902843"
    },
    {
      "type": "Feature",
      "properties": {
        "@id": "node/5040903635",
        "amenity": "atm",
        "name": "Mega Bank",
        "operator": "Mega Bank"
      },
      "geometry": {
        "type": "Point",
        "coordinates": [
          83.9573247,
          28.2089259
        ]
      },
      "id": "node/5040903635"
    },
    {
      "type": "Feature",
      "properties": {
        "@id": "node/5182161323",
        "amenity": "atm",
        "name": "NMB Development Bank",
        "operator": "NMB Development Bank"
      },
      "geometry": {
        "type": "Point",
        "coordinates": [
          83.9863529,
          28.2242019
        ]
      },
      "id": "node/5182161323"
    },
    {
      "type": "Feature",
      "properties": {
        "@id": "node/5248219787",
        "amenity": "atm",
        "name": "Nepal Bangladesh Bank Limited",
        "nrb_class": "commercial"
      },
      "geometry": {
        "type": "Point",
        "coordinates": [
          84.0395147,
          28.1822958
        ]
      },
      "id": "node/5248219787"
    },
    {
      "type": "Feature",
      "properties": {
        "@id": "node/5257131734",
        "amenity": "atm",
        "name": "Siddhartha Bank Limited",
        "name:ne": "सिद्धार्थ बैंक लिमिटेड",
        "nrb_class": "commercial",
        "operator": "Siddhartha Bank",
        "source": "2cpokhara"
      },
      "geometry": {
        "type": "Point",
        "coordinates": [
          83.9883445,
          28.2241516
        ]
      },
      "id": "node/5257131734"
    },
    {
      "type": "Feature",
      "properties": {
        "@id": "node/5426068644",
        "amenity": "atm",
        "brand": "Shangrila Bank ATM",
        "name": "Shangrila Bank ATM"
      },
      "geometry": {
        "type": "Point",
        "coordinates": [
          83.9874309,
          28.2213424
        ]
      },
      "id": "node/5426068644"
    },
    {
      "type": "Feature",
      "properties": {
        "@id": "node/5433044756",
        "amenity": "atm",
        "name": "NIC Asia Bank",
        "opening_hours": "24/7",
        "operator": "NIC Asia Bank",
        "source": "2cpokhara",
        "wheelchair": "no"
      },
      "geometry": {
        "type": "Point",
        "coordinates": [
          83.9726351,
          28.2611749
        ]
      },
      "id": "node/5433044756"
    },
    {
      "type": "Feature",
      "properties": {
        "@id": "node/5456766178",
        "amenity": "atm",
        "brand": "Sanima Bank",
        "name": "Sanima Bank",
        "network": "VISA,JCB, SCT,Master Card, VISA Electron",
        "opening_hours": "24/7",
        "source": "2cpokhara",
        "wheelchair": "no"
      },
      "geometry": {
        "type": "Point",
        "coordinates": [
          83.9708347,
          28.1921101
        ]
      },
      "id": "node/5456766178"
    },
    {
      "type": "Feature",
      "properties": {
        "@id": "node/5456766179",
        "amenity": "atm",
        "brand": "Om Development Bank",
        "name": "Om Development Bank",
        "network": "VISA,JCB, SCT,Master Card, VISA Electron",
        "opening_hours": "24/7",
        "source": "2cpokhara",
        "wheelchair": "no"
      },
      "geometry": {
        "type": "Point",
        "coordinates": [
          83.9708957,
          28.1921154
        ]
      },
      "id": "node/5456766179"
    },
    {
      "type": "Feature",
      "properties": {
        "@id": "node/5459168696",
        "amenity": "atm",
        "brand": "NIC ASIA",
        "contact:phone": "061-467356/57",
        "name": "NIC ASIA",
        "source": "2cpokhara"
      },
      "geometry": {
        "type": "Point",
        "coordinates": [
          83.9706365,
          28.1915619
        ]
      },
      "id": "node/5459168696"
    },
    {
      "type": "Feature",
      "properties": {
        "@id": "node/5459366055",
        "amenity": "atm",
        "brand": "SBI Bank",
        "name": "SBI Bank",
        "opening_hours": "24/7",
        "source": "2cpokhara"
      },
      "geometry": {
        "type": "Point",
        "coordinates": [
          83.9708897,
          28.1917354
        ]
      },
      "id": "node/5459366055"
    },
    {
      "type": "Feature",
      "properties": {
        "@id": "node/5459366057",
        "amenity": "atm",
        "brand": "Gandaki Bikas Bank",
        "name": "Gandaki Bikas Bank",
        "opening_hours": "24/7",
        "source": "2cpokhara",
        "wheelchair": "no"
      },
      "geometry": {
        "type": "Point",
        "coordinates": [
          83.9710741,
          28.1918952
        ]
      },
      "id": "node/5459366057"
    },
    {
      "type": "Feature",
      "properties": {
        "@id": "node/5462550865",
        "amenity": "atm",
        "brand": "Rastriya Banijya Bank",
        "contact:phone": "061-520473",
        "name": "Rastriya Banijya Bank",
        "opening_hours": "24/7",
        "source": "2cpokhara"
      },
      "geometry": {
        "type": "Point",
        "coordinates": [
          83.9691885,
          28.1990973
        ]
      },
      "id": "node/5462550865"
    },
    {
      "type": "Feature",
      "properties": {
        "@id": "node/5470393629",
        "amenity": "atm",
        "name": "Sanima Bank",
        "network": "VISA,MaterCard, UnionPay, National",
        "source": "2cpokhara"
      },
      "geometry": {
        "type": "Point",
        "coordinates": [
          83.9770514,
          28.1915061
        ]
      },
      "id": "node/5470393629"
    },
    {
      "type": "Feature",
      "properties": {
        "@id": "node/5470524937",
        "amenity": "atm",
        "brand": "Kailash Bikas Bank",
        "name": "Kailash Bikas Bank"
      },
      "geometry": {
        "type": "Point",
        "coordinates": [
          83.9712726,
          28.1923069
        ]
      },
      "id": "node/5470524937"
    },
    {
      "type": "Feature",
      "properties": {
        "@id": "node/5470524938",
        "amenity": "atm",
        "brand": "NCC Bank",
        "name": "NCC Bank"
      },
      "geometry": {
        "type": "Point",
        "coordinates": [
          83.9718486,
          28.1920752
        ]
      },
      "id": "node/5470524938"
    },
    {
      "type": "Feature",
      "properties": {
        "@id": "node/5572382719",
        "amenity": "atm",
        "name": "SBI Bank ATM",
        "nrb_class": "commercial",
        "opening_hours": "24/7",
        "source": "2c peset"
      },
      "geometry": {
        "type": "Point",
        "coordinates": [
          83.9831343,
          28.2108991
        ]
      },
      "id": "node/5572382719"
    },
    {
      "type": "Feature",
      "properties": {
        "@id": "node/5576636494",
        "amenity": "atm",
        "name": "Pokhara Finance Limited",
        "opening_hours": "24/7",
        "source": "2c peset"
      },
      "geometry": {
        "type": "Point",
        "coordinates": [
          83.9815545,
          28.2070406
        ]
      },
      "id": "node/5576636494"
    },
    {
      "type": "Feature",
      "properties": {
        "@id": "node/5578045438",
        "amenity": "atm",
        "name": "Siddhartha Bank",
        "nrb_class": "commercial",
        "opening_hours": "24/7",
        "source": "2c peset"
      },
      "geometry": {
        "type": "Point",
        "coordinates": [
          83.9846256,
          28.2108291
        ]
      },
      "id": "node/5578045438"
    },
    {
      "type": "Feature",
      "properties": {
        "@id": "node/5645140805",
        "amenity": "atm",
        "name": "Nabil Bank Limited",
        "opening_hours": "24/7",
        "operator": "Nabil Bank Limited"
      },
      "geometry": {
        "type": "Point",
        "coordinates": [
          84.002597,
          28.2055762
        ]
      },
      "id": "node/5645140805"
    },
    {
      "type": "Feature",
      "properties": {
        "@id": "node/5648757523",
        "amenity": "atm",
        "name": "NIC Asia",
        "opening_hours": "24/7",
        "operator": "NIC Asia Bank"
      },
      "geometry": {
        "type": "Point",
        "coordinates": [
          84.0577347,
          28.1627629
        ]
      },
      "id": "node/5648757523"
    },
    {
      "type": "Feature",
      "properties": {
        "@id": "node/5717366409",
        "amenity": "atm",
        "brand": "Siddartha Bank ATM",
        "name": "Siddhartha Bank",
        "nrb_class": "commercial",
        "operator": "Siddartha Bank Limited",
        "operator:type": "private",
        "source": "2cpokhara"
      },
      "geometry": {
        "type": "Point",
        "coordinates": [
          83.9801379,
          28.2251562
        ]
      },
      "id": "node/5717366409"
    },
    {
      "type": "Feature",
      "properties": {
        "@id": "node/6066443889",
        "amenity": "atm",
        "operator": "Sunrise Bank Limited"
      },
      "geometry": {
        "type": "Point",
        "coordinates": [
          83.9580105,
          28.2147184
        ]
      },
      "id": "node/6066443889"
    },
    {
      "type": "Feature",
      "properties": {
        "@id": "node/6468749486",
        "amenity": "atm",
        "operator": "HZHS"
      },
      "geometry": {
        "type": "Point",
        "coordinates": [
          83.9889439,
          28.2403837
        ]
      },
      "id": "node/6468749486"
    },
    {
      "type": "Feature",
      "properties": {
        "@id": "node/6784745585",
        "amenity": "atm",
        "operator": "bshshs"
      },
      "geometry": {
        "type": "Point",
        "coordinates": [
          83.9869686,
          28.221139
        ]
      },
      "id": "node/6784745585"
    },
    {
      "type": "Feature",
      "properties": {
        "@id": "node/7242457685",
        "amenity": "atm",
        "operator": "Agricultural development bank"
      },
      "geometry": {
        "type": "Point",
        "coordinates": [
          83.9867998,
          28.2106698
        ]
      },
      "id": "node/7242457685"
    },
    {
      "type": "Feature",
      "properties": {
        "@id": "node/7797050375",
        "amenity": "atm",
        "brand": "Everest Bank ATM"
      },
      "geometry": {
        "type": "Point",
        "coordinates": [
          83.9815298,
          28.2117565
        ]
      },
      "id": "node/7797050375"
    },
    {
      "type": "Feature",
      "properties": {
        "@id": "node/7799185185",
        "amenity": "atm",
        "brand": "Machhapuchhre Bank ATM"
      },
      "geometry": {
        "type": "Point",
        "coordinates": [
          83.9780364,
          28.2217477
        ]
      },
      "id": "node/7799185185"
    },
    {
      "type": "Feature",
      "properties": {
        "@id": "node/9518552217",
        "amenity": "atm",
        "operator": "Century Bank Limited"
      },
      "geometry": {
        "type": "Point",
        "coordinates": [
          84.0563724,
          28.1648049
        ]
      },
      "id": "node/9518552217"
    },
    {
      "type": "Feature",
      "properties": {
        "@id": "node/9689341236",
        "amenity": "atm",
        "operator": "NIC Asia"
      },
      "geometry": {
        "type": "Point",
        "coordinates": [
          83.9783436,
          28.2554449
        ]
      },
      "id": "node/9689341236"
    },
    {
      "type": "Feature",
      "properties": {
        "@id": "node/10068839141",
        "amenity": "atm"
      },
      "geometry": {
        "type": "Point",
        "coordinates": [
          83.9813641,
          28.2117165
        ]
      },
      "id": "node/10068839141"
    },
    {
      "type": "Feature",
      "properties": {
        "@id": "node/10202355033",
        "amenity": "atm",
        "name": "ATM"
      },
      "geometry": {
        "type": "Point",
        "coordinates": [
          83.9682092,
          28.201382
        ]
      },
      "id": "node/10202355033"
    }
  ]
}